{"type": "FeatureCollection", "features": [ {"type": "Feature", "properties": {"norad_id": 66504, "name": "STARLINK-35916", "group": "last-30-days", "lat": -33.29991683072667, "lon": 69.57952765828647, "alt_km": 444.79549638733806, "timestamp": "2025-12-14T20:40:30.514353+00:00", "meta": {"OBJECT_NAME": "STARLINK-35916", "OBJECT_ID": "2025-263V", "EPOCH": "2025-12-14T02:14:13.077888", "MEAN_MOTION": 15.40706755, "ECCENTRICITY": 0.00035387, "INCLINATION": 42.9966, "RA_OF_ASC_NODE": 118.8375, "ARG_OF_PERICENTER": 264.3324, "MEAN_ANOMALY": 95.7129, "EPHEMERIS_TYPE": 0, "CLASSIFICATION_TYPE": "U", "NORAD_CAT_ID": 66504, "ELEMENT_SET_NO": 999, "REV_AT_EPOCH": 575, "BSTAR": 0.0011162764, "MEAN_MOTION_DOT": 0.00046629, "MEAN_MOTION_DDOT": 0}, "tle": {"line1": "1 66504U 25263V   25348.09320692  .00046629  00000+0  11163-2 0  9992", "line2": "2 66504  42.9966 118.8375 0003538 264.3324  95.7129 15.40706755  5755"}}, "geometry": {"type": "Point", "coordinates": [69.57952765828647, -33.29991683072667]}}, {"type": "Feature", "properties": {"norad_id": 66505, "name": "STARLINK-34766", "group": "last-30-days", "lat": -38.37336158893263, "lon": 54.475663025556024, "alt_km": 415.64121161918865, "timestamp": "2025-12-14T20:40:30.514363+00:00", "meta": {"OBJECT_NAME": "STARLINK-34766", "OBJECT_ID": "2025-263W", "EPOCH": "2025-12-12T17:56:57.882624", "MEAN_MOTION": 15.50613801, "ECCENTRICITY": 0.00016181, "INCLINATION": 42.9974, "RA_OF_ASC_NODE": 125.0394, "ARG_OF_PERICENTER": 278.9286, "MEAN_ANOMALY": 81.1391, "EPHEMERIS_TYPE": 0, "CLASSIFICATION_TYPE": "U", "NORAD_CAT_ID": 66505, "ELEMENT_SET_NO": 999, "REV_AT_EPOCH": 556, "BSTAR": 0.0019225717, "MEAN_MOTION_DOT": 0.00114249, "MEAN_MOTION_DDOT": 0}, "tle": {"line1": "1 66505U 25263W   25346.74789216  .00114249  00000+0  19226-2 0  9996", "line2": "2 66505  42.9974 125.0394 0001618 278.9286  81.1391 15.50613801  5560"}}, "geometry": {"type": "Point", "coordinates": [54.475663025556024, -38.37336158893263]}}, {"type": "Feature", "properties": {"norad_id": 66506, "name": "STARLINK-34765", "group": "last-30-days", "lat": -37.91814758918158, "lon": 55.96268192633505, "alt_km": 415.6419282217212, "timestamp": "2025-12-14T20:40:30.514384+00:00", "meta": {"OBJECT_NAME": "STARLINK-34765", "OBJECT_ID": "2025-263X", "EPOCH": "2025-12-13T09:24:02.209536", "MEAN_MOTION": 15.50662448, "ECCENTRICITY": 0.00019802, "INCLINATION": 43.0016, "RA_OF_ASC_NODE": 121.276, "ARG_OF_PERICENTER": 266.2517, "MEAN_ANOMALY": 93.8117, "EPHEMERIS_TYPE": 0, "CLASSIFICATION_TYPE": "U", "NORAD_CAT_ID": 66506, "ELEMENT_SET_NO": 999, "REV_AT_EPOCH": 566, "BSTAR": 0.0020838032, "MEAN_MOTION_DOT": 0.00124234, "MEAN_MOTION_DDOT": 0}, "tle": {"line1": "1 66506U 25263X   25347.39169224  .00124234  00000+0  20838-2 0  9996", "line2": "2 66506  43.0016 121.2760 0001980 266.2517  93.8117 15.50662448  5662"}}, "geometry": {"type": "Point", "coordinates": [55.96268192633505, -37.91814758918158]}}, {"type": "Feature", "properties": {"norad_id": 66507, "name": "STARLINK-34767", "group": "last-30-days", "lat": -12.075473892192214, "lon": -53.81899416838529, "alt_km": 444.8703457477841, "timestamp": "2025-12-14T20:40:30.514397+00:00", "meta": {"OBJECT_NAME": "STARLINK-34767", "OBJECT_ID": "2025-263Y", "EPOCH": "2025-12-14T06:00:02.999808", "MEAN_MOTION": 15.40653402, "ECCENTRICITY": 0.00016293, "INCLINATION": 42.9999, "RA_OF_ASC_NODE": 116.433, "ARG_OF_PERICENTER": 274.2202, "MEAN_ANOMALY": 128.2301, "EPHEMERIS_TYPE": 0, "CLASSIFICATION_TYPE": "U", "NORAD_CAT_ID": 66507, "ELEMENT_SET_NO": 999, "REV_AT_EPOCH": 587, "BSTAR": 0.0021551702, "MEAN_MOTION_DOT": 0.0009066, "MEAN_MOTION_DDOT": 0}, "tle": {"line1": "1 66507U 25263Y   25348.25003472  .00090660  00000+0  21552-2 0  9994", "line2": "2 66507  42.9999 116.4330 0001629 274.2202 128.2301 15.40653402  5870"}}, "geometry": {"type": "Point", "coordinates": [-53.81899416838529, -12.075473892192214]}}, {"type": "Feature", "properties": {"norad_id": 66508, "name": "STARLINK-35608", "group": "last-30-days", "lat": -39.03385822289284, "lon": -6.748743580000427, "alt_km": 446.7034072120441, "timestamp": "2025-12-14T20:40:30.514408+00:00", "meta": {"OBJECT_NAME": "STARLINK-35608", "OBJECT_ID": "2025-263Z", "EPOCH": "2025-12-14T06:00:02.999808", "MEAN_MOTION": 15.40849259, "ECCENTRICITY": 0.000165, "INCLINATION": 43.0002, "RA_OF_ASC_NODE": 116.3112, "ARG_OF_PERICENTER": 257.2173, "MEAN_ANOMALY": 194.9573, "EPHEMERIS_TYPE": 0, "CLASSIFICATION_TYPE": "U", "NORAD_CAT_ID": 66508, "ELEMENT_SET_NO": 999, "REV_AT_EPOCH": 587, "BSTAR": -0.0068484499, "MEAN_MOTION_DOT": -0.00277608, "MEAN_MOTION_DDOT": 0}, "tle": {"line1": "1 66508U 25263Z   25348.25003472 -.00277608  00000+0 -68484-2 0  9991", "line2": "2 66508  43.0002 116.3112 0001650 257.2173 194.9573 15.40849259  5875"}}, "geometry": {"type": "Point", "coordinates": [-6.748743580000427, -39.03385822289284]}}, {"type": "Feature", "properties": {"norad_id": 66509, "name": "STARLINK-35598", "group": "last-30-days", "lat": -31.29184300642893, "lon": 71.91469022144595, "alt_km": 418.48652345965274, "timestamp": "2025-12-14T20:40:30.514418+00:00", "meta": {"OBJECT_NAME": "STARLINK-35598", "OBJECT_ID": "2025-263AA", "EPOCH": "2025-12-14T08:31:08.436000", "MEAN_MOTION": 15.50307356, "ECCENTRICITY": 0.00024598, "INCLINATION": 42.9963, "RA_OF_ASC_NODE": 115.5964, "ARG_OF_PERICENTER": 212.5604, "MEAN_ANOMALY": 147.5105, "EPHEMERIS_TYPE": 0, "CLASSIFICATION_TYPE": "U", "NORAD_CAT_ID": 66509, "ELEMENT_SET_NO": 999, "REV_AT_EPOCH": 581, "BSTAR": 0.0014213788, "MEAN_MOTION_DOT": 0.0008313, "MEAN_MOTION_DDOT": 0}, "tle": {"line1": "1 66509U 25263AA  25348.35495875  .00083130  00000+0  14214-2 0  9990", "line2": "2 66509  42.9963 115.5964 0002459 212.5604 147.5105 15.50307356  5814"}}, "geometry": {"type": "Point", "coordinates": [71.91469022144595, -31.29184300642893]}}, {"type": "Feature", "properties": {"norad_id": 66510, "name": "STARLINK-35600", "group": "last-30-days", "lat": -33.122970565510656, "lon": 68.2016983205615, "alt_km": 415.42389972680485, "timestamp": "2025-12-14T20:40:30.514429+00:00", "meta": {"OBJECT_NAME": "STARLINK-35600", "OBJECT_ID": "2025-263AB", "EPOCH": "2025-12-13T17:04:51.354336", "MEAN_MOTION": 15.50691917, "ECCENTRICITY": 0.00026786, "INCLINATION": 43.0009, "RA_OF_ASC_NODE": 119.3706, "ARG_OF_PERICENTER": 264.2732, "MEAN_ANOMALY": 95.7823, "EPHEMERIS_TYPE": 0, "CLASSIFICATION_TYPE": "U", "NORAD_CAT_ID": 66510, "ELEMENT_SET_NO": 999, "REV_AT_EPOCH": 571, "BSTAR": 0.0017561372, "MEAN_MOTION_DOT": 0.00104495, "MEAN_MOTION_DDOT": 0}, "tle": {"line1": "1 66510U 25263AB  25347.71170549  .00104495  00000+0  17561-2 0  9995", "line2": "2 66510  43.0009 119.3706 0002678 264.2732  95.7823 15.50691917  5713"}}, "geometry": {"type": "Point", "coordinates": [68.2016983205615, -33.122970565510656]}}, {"type": "Feature", "properties": {"norad_id": 66511, "name": "STARLINK-35444", "group": "last-30-days", "lat": -31.57945689692041, "lon": 71.35947773321227, "alt_km": 416.7182652198753, "timestamp": "2025-12-14T20:40:30.514439+00:00", "meta": {"OBJECT_NAME": "STARLINK-35444", "OBJECT_ID": "2025-263AC", "EPOCH": "2025-12-13T18:36:38.488608", "MEAN_MOTION": 15.50553327, "ECCENTRICITY": 9.555e-05, "INCLINATION": 42.9995, "RA_OF_ASC_NODE": 118.9895, "ARG_OF_PERICENTER": 296.0653, "MEAN_ANOMALY": 64.0108, "EPHEMERIS_TYPE": 0, "CLASSIFICATION_TYPE": "U", "NORAD_CAT_ID": 66511, "ELEMENT_SET_NO": 999, "REV_AT_EPOCH": 572, "BSTAR": 0.0015108389, "MEAN_MOTION_DOT": 0.00089226, "MEAN_MOTION_DDOT": 0}, "tle": {"line1": "1 66511U 25263AC  25347.77544547  .00089226  00000+0  15108-2 0  9994", "line2": "2 66511  42.9995 118.9895 0000955 296.0653  64.0108 15.50553327  5729"}}, "geometry": {"type": "Point", "coordinates": [71.35947773321227, -31.57945689692041]}}, {"type": "Feature", "properties": {"norad_id": 66512, "name": "STARLINK-35366", "group": "last-30-days", "lat": -29.33008772006829, "lon": 75.53984240758759, "alt_km": 415.593746807117, "timestamp": "2025-12-14T20:40:30.514449+00:00", "meta": {"OBJECT_NAME": "STARLINK-35366", "OBJECT_ID": "2025-263AD", "EPOCH": "2025-12-13T17:02:53.035584", "MEAN_MOTION": 15.50610733, "ECCENTRICITY": 0.00025895, "INCLINATION": 43.0009, "RA_OF_ASC_NODE": 119.3568, "ARG_OF_PERICENTER": 263.1209, "MEAN_ANOMALY": 96.9357, "EPHEMERIS_TYPE": 0, "CLASSIFICATION_TYPE": "U", "NORAD_CAT_ID": 66512, "ELEMENT_SET_NO": 999, "REV_AT_EPOCH": 571, "BSTAR": 0.0018726046, "MEAN_MOTION_DOT": 0.0011122, "MEAN_MOTION_DDOT": 0}, "tle": {"line1": "1 66512U 25263AD  25347.71033606  .00111220  00000+0  18726-2 0  9997", "line2": "2 66512  43.0009 119.3568 0002589 263.1209  96.9357 15.50610733  5711"}}, "geometry": {"type": "Point", "coordinates": [75.53984240758759, -29.33008772006829]}}, {"type": "Feature", "properties": {"norad_id": 66513, "name": "STARLINK-35692", "group": "last-30-days", "lat": -32.39945557832803, "lon": 69.72587154542668, "alt_km": 415.0815236120334, "timestamp": "2025-12-14T20:40:30.514462+00:00", "meta": {"OBJECT_NAME": "STARLINK-35692", "OBJECT_ID": "2025-263AE", "EPOCH": "2025-12-13T18:37:07.420512", "MEAN_MOTION": 15.50613635, "ECCENTRICITY": 0.00033711, "INCLINATION": 43.0049, "RA_OF_ASC_NODE": 118.9928, "ARG_OF_PERICENTER": 277.9214, "MEAN_ANOMALY": 82.1264, "EPHEMERIS_TYPE": 0, "CLASSIFICATION_TYPE": "U", "NORAD_CAT_ID": 66513, "ELEMENT_SET_NO": 999, "REV_AT_EPOCH": 572, "BSTAR": 0.0016517493, "MEAN_MOTION_DOT": 0.00097912, "MEAN_MOTION_DDOT": 0}, "tle": {"line1": "1 66513U 25263AE  25347.77578033  .00097912  00000+0  16517-2 0  9999", "line2": "2 66513  43.0049 118.9928 0003371 277.9214  82.1264 15.50613635  5729"}}, "geometry": {"type": "Point", "coordinates": [69.72587154542668, -32.39945557832803]}}]}